KUIPER-00101            
1 65947U 25228A   25317.16671295 -.00625152  00000+0 -23968-1 0  9996
2 65947  51.8821 163.2705 0005655 237.3511  44.8490 15.28291495  5555
KUIPER-00113            
1 65948U 25228B   25316.57177266  .00105472  00000+0  29764-2 0  9997
2 65948  51.8752 165.8574 0005988 241.5321 118.5062 15.35525529  5781
KUIPER-00117            
1 65949U 25228C   25317.16671295 -.00359818  00000+0 -11850-1 0  9998
2 65949  51.8798 163.0220 0007269 245.3603 144.7098 15.32419747  5308
KUIPER-00121            
1 65950U 25228D   25316.97495075  .00058975  00000+0  17168-2 0  9995
2 65950  51.8808 164.0609 0005760 256.5274 103.5070 15.34834798  5847
KUIPER-00122            
1 65951U 25228E   25317.16671295 -.00453169  00000+0 -20769-1 0  9994
2 65951  51.8833 163.7535 0006455 275.3998 140.5351 15.22021268  4494
KUIPER-00123            
1 65952U 25228F   25317.16671295 -.00511420  00000+0 -24193-1 0  9995
2 65952  51.8838 163.7698 0005909 259.5403 104.8587 15.21223337  2793
KUIPER-00124            
1 65953U 25228G   25316.97840214  .00068581  00000+0  20163-2 0  9990
2 65953  51.8809 164.0794 0005178 272.7485  87.2908 15.34456675  5845
KUIPER-00125            
1 65954U 25228H   25316.31901200  .00082072  00000+0  23599-2 0  9999
2 65954  51.8779 167.1581 0004739 245.4129 114.6363 15.35073080  5749
KUIPER-00126            
1 65955U 25228J   25317.16671295 -.00834965  00000+0 -33235-1 0  9997
2 65955  51.8809 163.3419 0005435 272.8733 312.1456 15.27386314  5297
KUIPER-00127            
1 65956U 25228K   25317.16671295  .00029844  00000+0  91996-3 0  9998
2 65956  51.8792 163.0230 0005131 251.7986 145.7688 15.33344889  4739
KUIPER-00128            
1 65957U 25228L   25316.96858676  .00058015  00000+0  16806-2 0  9994
2 65957  51.8745 164.0190 0006078 244.1367 115.8992 15.34993322  5846
KUIPER-00129            
1 65958U 25228M   25316.96753429  .00060304  00000+0  17315-2 0  9995
2 65958  51.8829 164.0119 0006823 242.1173 117.9122 15.35249805  5841
KUIPER-00130            
1 65959U 25228N   25316.97214100  .00053843  00000+0  15645-2 0  9999
2 65959  51.8814 164.0337 0006393 255.5228 104.5049 15.34929491  5844
KUIPER-00134            
1 65960U 25228P   25316.90879830  .00049799  00000+0  14511-2 0  9997
2 65960  51.8814 164.3587 0005733 257.2442 102.7904 15.34877913  5830
KUIPER-00135            
1 65961U 25228Q   25316.58288773  .00054769  00000+0  15929-2 0  9999
2 65961  51.8773 165.9354 0003856 239.8289 120.2315 15.34903323  5783
KUIPER-00136            
1 65962U 25228R   25316.57541091  .00060757  00000+0  17491-2 0  9994
2 65962  51.8753 165.8843 0004091 231.5110 128.5509 15.35176694  5788
KUIPER-00137            
1 65963U 25228S   25316.84274677  .00079705  00000+0  23099-2 0  9992
2 65963  51.8795 164.6754 0004794 249.0780 110.9693 15.34840177  5827
KUIPER-00138            
1 65964U 25228T   25316.97663514  .00082046  00000+0  23846-2 0  9991
2 65964  51.8821 164.0660 0007484 265.8231  94.1899 15.34721338  5844
KUIPER-00140            
1 65965U 25228U   25316.97775015  .00048816  00000+0  14416-2 0  9992
2 65965  51.8834 164.0757 0006887 264.2977  95.7223 15.34460761  5840
KUIPER-00141            
1 65966U 25228V   25316.96893532  .00053054  00000+0  15323-2 0  9995
2 65966  51.8813 164.0131 0006416 248.1803 111.8500 15.35125022  5848
KUIPER-00146            
1 65967U 25228W   25317.16546573  .00049069  00000+0  14296-2 0  9998
2 65967  51.8768 163.0898 0006602 245.9363 114.0932 15.34884647  5871
KUIPER-00149            
1 65968U 25228X   25317.16135793  .00065742  00000+0  18849-2 0  9991
2 65968  51.8789 163.0560 0005531 239.9132 120.1306 15.35263913  5879
KUIPER-00154            
1 65969U 25228Y   25316.96499293  .00051257  00000+0  14812-2 0  9999
2 65969  51.8748 163.9908 0006206 237.4960 122.5426 15.35124236  5842
KUIPER-00157            
1 65970U 25228Z   25316.97399479  .00062590  00000+0  18242-2 0  9990
2 65970  51.8818 164.0546 0006748 272.5745  87.4468 15.34764190  5847
STRIX-5                 
1 65971U 25229A   25317.11114110  .00016856  00000+0  12596-2 0  9996
2 65971  41.9288  43.5131 0038115  78.2209 282.2888 15.01914824  4451
ELECTRON R/B            
1 65972U 25229B   25312.05680473  .00007550  00000+0  57453-3 0  9998
2 65972  41.9280  71.4275 0038585  44.3366 316.0539 15.01793365  3679
ELECTRON KICK STAGE R/B 
1 65973U 25229C   25316.62899441  .00014322  00000+0  10466-2 0  9990
2 65973  41.9846  46.1144 0039376  74.9282 285.5896 15.02809150  4350
SDA_1664                
1 65974U 25230A   25317.11416419  .00000430  00000+0  37190-3 0  9997
2 65974  81.3002  52.0864 0003109  44.8916 315.2492 13.84699276  3900
SDA_1665                
1 65975U 25230B   25317.09937610  .00000451  00000+0  38531-3 0  9999
2 65975  81.3039  52.0815 0004998  86.6510 273.5219 13.85429617  3902
SDA_1666                
1 65976U 25230C   25317.11561106  .00000371  00000+0  31985-3 0  9993
2 65976  81.3011  52.0912 0002744  42.4850 317.6519 13.84628092  3905
SDA_1667                
1 65977U 25230D   25317.11052172  .00000389  00000+0  33406-3 0  9991
2 65977  81.3006  52.0831 0003699  55.4580 304.6925 13.84879254  3909
SDA_1668                
1 65978U 25230E   25317.09853485  .00000458  00000+0  39116-3 0  9996
2 65978  81.3022  52.0708 0004916  89.4750 270.6971 13.85471753  3906
SDA_1669                
1 65979U 25230F   25317.10325206  .00000429  00000+0  36746-3 0  9998
2 65979  81.3024  52.0777 0004937  76.5520 283.6187 13.85238689  3902
SDA_1670                
1 65980U 25230G   25317.11182866  .00000432  00000+0  37268-3 0  9998
2 65980  81.3002  52.0834 0003343  51.7677 308.3780 13.84815385  3909
SDA_1671                
1 65981U 25230H   25317.10068051  .00000444  00000+0  38018-3 0  9994
2 65981  81.3028  52.0753 0004938  83.7052 276.4667 13.85364892  3903
SDA_1672                
1 65982U 25230J   25317.10893478  .00000379  00000+0  32467-3 0  9993
2 65982  81.3036  52.0896 0004086  57.1408 303.0142 13.84957592  3904
SDA_1673                
1 65983U 25230K   25317.09678852  .00000456  00000+0  38928-3 0  9993
2 65983  81.3034  52.0750 0005094  93.9263 266.2477 13.85558145  3902
SDA_1674                
1 65984U 25230L   25317.09998921  .00000480  00000+0  41176-3 0  9992
2 65984  81.3025  52.0734 0004892  85.5607 274.6109 13.85399518  3901
SDA_1675                
1 65985U 25230M   25317.11358963  .00000382  00000+0  32872-3 0  9996
2 65985  81.3002  52.0857 0003192  46.8422 313.3002 13.84727849  3904
SDA_1676                
1 65986U 25230N   25317.11663885  .00000397  00000+0  34313-3 0  9997
2 65986  81.3033  52.0982 0002428  38.2000 321.9329 13.84577836  3902
SDA_1677                
1 65987U 25230P   25317.11489780  .00000452  00000+0  39189-3 0  9996
2 65987  81.3006  52.0890 0002783  43.0539 317.0835 13.84663438  3908
SDA_1678                
1 65988U 25230Q   25317.09768297  .00000454  00000+0  38792-3 0  9998
2 65988  81.3037  52.0781 0004988  91.8840 268.2888 13.85513213  3908
SDA_1679                
1 65989U 25230R   25317.10176153  .00000394  00000+0  33605-3 0  9996
2 65989  81.3036  52.0837 0005099  80.5712 279.6021 13.85312068  3907
SDA_1680                
1 65990U 25230S   25317.10422231  .00000444  00000+0  38079-3 0  9995
2 65990  81.3027  52.0806 0004873  73.6183 286.5510 13.85191098  3907
SDA_1681                
1 65991U 25230T   25317.10260197  .00000464  00000+0  39777-3 0  9995
2 65991  81.3025  52.0767 0004987  78.1266 282.0450 13.85271353  3907
SDA_1682                
1 65992U 25230U   25317.11142057  .00000419  00000+0  36171-3 0  9996
2 65992  81.3052  52.0978 0003432  52.8617 307.2853 13.84835001  3907
SDA_1683                
1 65993U 25230V   25317.10978762  .00000409  00000+0  35221-3 0  9990
2 65993  81.3043  52.0926 0003782  55.3348 304.8165 13.84916228  3908
SDA_1684                
1 65994U 25230W   25317.18497609  .00000351  00000+0  30155-3 0  9992
2 65994  81.3026  52.0247 0003523  42.3391 317.8037 13.84771124  3910
HULIANWANG DIGUI 12A    
1 65995U 25231A   25316.72659157  .00000184  00000+0  22515-3 0  9996
2 65995  50.0093 245.1515 0002164 313.9669  46.1055 14.00244294  3897
HULIANWANG DIGUI 12B    
1 65996U 25231B   25316.73146765  .00000122  00000+0  18540-3 0  9999
2 65996  49.9992 245.1620 0000290 331.4792  28.6094 13.99585676  3897
HULIANWANG DIGUI 12C    
1 65997U 25231C   25317.15456432  .00000158  00000+0  21102-3 0  9999
2 65997  50.0023 243.3973 0001233  11.6734 348.4197 13.99270540  3953
HULIANWANG DIGUI 12D    
1 65998U 25231D   25316.71776273  .00000129  00000+0  18904-3 0  9993
2 65998  49.9995 245.0894 0000198 354.1096   5.9804 13.99891870  3893
HULIANWANG DIGUI 12E    
1 65999U 25231E   25316.72467833  .00000121  00000+0  18258-3 0  9998
2 65999  50.0018 245.1327 0000287 331.9932  28.0955 14.00180423  3897
HULIANWANG DIGUI 12F    
1 66000U 25231F   25316.92430728  .00000150  00000+0  20340-3 0  9994
2 66000  50.0098 244.1945 0001077 355.7740   4.3154 13.99921905  3920
HULIANWANG DIGUI 12G    
1 66001U 25231G   25317.14958389  .00000214  00000+0  24805-3 0  9999
2 66001  50.0041 243.3904 0000803  11.3775 348.7145 13.99591149  3955
HULIANWANG DIGUI 12H    
1 66002U 25231H   25317.08012867  .00000081  00000+0  15731-3 0  9995
2 66002  50.0060 243.6973 0000568 320.6978  39.3883 13.99514215  3945
HULIANWANG DIGUI 12J    
1 66003U 25231J   25316.93100786  .00000151  00000+0  20285-3 0  9995
2 66003  50.0078 244.2294 0001209 358.3627   1.7272 14.00217580  3921
CZ-8A R/B               
1 66004U 25231K   25317.13186666  .00000171  00000+0  11966-3 0  9998
2 66004  50.0035 238.4623 0116679 182.8649 177.1611 14.30038284  4020
STARLINK-34849          
1 66005U 25232A   25316.93681090  .00083486  00000+0  20671-2 0  9990
2 66005  53.1609 288.1028 0001024 122.9992 237.1112 15.39727379  5525
